NORAD_CAT_ID,OBJECT_NAME,OBJECT_TYPE,EPOCH,MEAN_MOTION,ECCENTRICITY,INCLINATION,RA_OF_ASC_NODE,ARG_OF_PERICENTER,MEAN_ANOMALY,BSTAR,MEAN_MOTION_DOT,MEAN_MOTION_DDOT,TLE_LINE0,TLE_LINE1,TLE_LINE2,SEMIMAJOR_AXIS,PERIOD,APOGEE,PERIGEE,DECAYED
56790.0,STARLINK-6345,PAYLOAD,2024-02-24 22:00:00,15.0354355,0.0003251,70.0018,19.9074,270.2173,64.52,-0.072884,-0.00921234,0.0,0 STARLINK-6345,1 56790U 23078Z   24055.91667824 -.00921234  00000-0 -72884-1 0  9999,2 56790  70.0018  19.9074 0003251 270.2173  64.5200 15.03543550  5809,6934.117,95.774,558.236,553.728,0.0
56790.0,STARLINK-6345,PAYLOAD,2024-02-25 06:00:00,15.02861547,0.0003223,70.0018,19.0605,276.5354,61.5443,-0.071196,-0.00886348,0.0,0 STARLINK-6345,1 56790U 23078Z   24056.25001157 -.00886348  00000-0 -71196-1 0  9999,2 56790  70.0018  19.0605 0003223 276.5354  61.5443 15.02861547 42567,6936.215,95.817,560.315,555.844,0.0
56790.0,STARLINK-6345,PAYLOAD,2024-02-25 14:00:01,15.02237006,0.0003147,70.0017,18.2146,274.2984,66.3205,-0.077689,-0.00957254,0.0,0 STARLINK-6345,1 56790U 23078Z   24056.58334491 -.00957254  00000-0 -77689-1 0  9993,2 56790  70.0017  18.2146 0003147 274.2984  66.3205 15.02237006  5909,6938.137,95.857,562.185,557.819,0.0
56790.0,STARLINK-6345,PAYLOAD,2024-02-25 22:00:00,15.01587851,0.0003211,70.0021,17.3697,270.9278,71.443,-0.076863,-0.00922218,0.0,0 STARLINK-6345,1 56790U 23078Z   24056.91667824 -.00922218  00000-0 -76863-1 0  9994,2 56790  70.0021  17.3697 0003211 270.9278  71.4430 15.01587851 42662,6940.136,95.898,564.23,559.773,0.0
56790.0,STARLINK-6345,PAYLOAD,2024-02-26 14:00:01,15.00275496,0.0003163,70.0019,15.682,274.5129,69.0479,-0.081066,-0.00949048,0.0,0 STARLINK-6345,1 56790U 23078Z   24057.58334491 -.00949048  00000-0 -81066-1 0  9990,2 56790  70.0019  15.6820 0003163 274.5129  69.0479 15.00275496  5875,6944.183,95.982,568.245,563.852,0.0
56790.0,STARLINK-6345,PAYLOAD,2024-02-26 22:00:01,14.99446668,0.0003141,70.0022,14.8396,271.3658,71.6883,-0.017695,-0.00211038,0.0,0 STARLINK-6345,1 56790U 23078Z   24057.91668981 -.00211038  00000-0 -17695-1 0  9999,2 56790  70.0022  14.8396 0003141 271.3658  71.6883 14.99446668 42817,6946.742,96.035,570.789,566.425,0.0
56790.0,STARLINK-6345,PAYLOAD,2024-02-27 06:00:00,14.99286399,0.0003161,70.0022,13.9977,277.8417,63.8787,0.0023722,0.00029042,0.0,0 STARLINK-6345,1 56790U 23078Z   24058.25001157  .00029042  00000-0  23722-2 0  9992,2 56790  70.0022  13.9977 0003161 277.8417  63.8787 14.99286399 42862,6947.237,96.046,571.298,566.906,0.0
56790.0,STARLINK-6345,PAYLOAD,2024-02-27 14:00:01,14.99295157,0.0003106,70.002,13.1561,272.1998,68.1715,-0.0021431,-0.00026216,0.0,0 STARLINK-6345,1 56790U 23078Z   24058.58334491 -.00026216  00000-0 -21431-2 0  9995,2 56790  70.0020  13.1561 0003106 272.1998  68.1715 14.99295157  5952,6947.21,96.045,571.233,566.917,0.0
56790.0,STARLINK-6345,PAYLOAD,2024-02-27 22:00:00,14.99305584,0.0003139,70.0023,12.3145,267.5183,71.4749,0.00017777,2.082e-05,0.0,0 STARLINK-6345,1 56790U 23078Z   24058.91667824  .00002082  00000-0  17777-3 0  9993,2 56790  70.0023  12.3145 0003139 267.5183  71.4749 14.99305584 42966,6947.178,96.044,571.223,566.862,0.0
56790.0,STARLINK-6345,PAYLOAD,2024-02-28 14:00:01,14.99293456,0.0003073,70.002,10.631,268.8016,67.5552,-0.00027031,-3.399e-05,0.0,0 STARLINK-6345,1 56790U 23078Z   24059.58335648 -.00003399  00000-0 -27031-3 0  9991,2 56790  70.0020  10.6310 0003073 268.8016  67.5552 14.99293456  5752,6947.215,96.045,571.215,566.945,0.0
56790.0,STARLINK-6345,PAYLOAD,2024-02-28 22:00:00,14.99319483,0.0003114,70.0023,9.7894,265.4086,69.5133,-0.00042237,-5.261e-05,0.0,0 STARLINK-6345,1 56790U 23078Z   24059.91667824 -.00005261  00000-0 -42237-3 0  9997,2 56790  70.0023   9.7894 0003114 265.4086  69.5133 14.99319483  5809,6947.135,96.044,571.163,566.836,0.0
56790.0,STARLINK-6345,PAYLOAD,2024-02-29 06:00:00,14.99301436,0.0003107,70.0022,8.9476,272.6741,60.9189,-0.00050141,-6.224e-05,0.0,0 STARLINK-6345,1 56790U 23078Z   24060.25001157 -.00006224  00000-0 -50141-3 0  9990,2 56790  70.0022   8.9476 0003107 272.6741  60.9189 14.99301436 43161,6947.19,96.045,571.214,566.897,0.0
56790.0,STARLINK-6345,PAYLOAD,2024-02-29 14:00:01,14.99286128,0.000309,70.002,8.1059,269.7672,62.4765,0.00022251,2.629e-05,0.0,0 STARLINK-6345,1 56790U 23078Z   24060.58334491  .00002629  00000-0  22251-3 0  9990,2 56790  70.0020   8.1059 0003090 269.7672  62.4765 14.99286128  5906,6947.238,96.046,571.249,566.956,0.0
56790.0,STARLINK-6345,PAYLOAD,2024-02-29 22:00:00,14.99321305,0.0003137,70.0023,7.2643,267.341,63.5265,-0.00082924,-0.00010231,0.0,0 STARLINK-6345,1 56790U 23078Z   24060.91667824 -.00010231  00000-0 -82924-3 0  9999,2 56790  70.0023   7.2643 0003137 267.3410  63.5265 14.99321305  5964,6947.129,96.043,571.173,566.815,0.0
56790.0,STARLINK-6345,PAYLOAD,2024-03-01 06:08:10,14.99299224,0.000295,70.0004,6.4086,269.4333,90.6489,7.6289e-05,8.4e-06,0.0,0 STARLINK-6345,1 56790U 23078Z   24061.25567201  .00000840  00000-0  76289-4 0  9996,2 56790  70.0004   6.4086 0002950 269.4333  90.6489 14.99299224 43318,6947.197,96.045,571.112,567.013,0.0
56790.0,STARLINK-6345,PAYLOAD,2024-03-01 20:32:48,14.99317995,0.0002702,70.0007,4.8915,272.4198,87.6652,-0.00020894,-2.651e-05,0.0,0 STARLINK-6345,1 56790U 23078Z   24061.85611967 -.00002651  00000-0 -20894-3 0  9995,2 56790  70.0007   4.8915 0002702 272.4198  87.6652 14.99317995 43406,6947.139,96.044,570.881,567.127,0.0
56790.0,STARLINK-6345,PAYLOAD,2024-03-01 22:08:53,14.99300198,0.000302,70.0006,4.7231,269.0658,91.0155,6.7541e-05,7.33e-06,0.0,0 STARLINK-6345,1 56790U 23078Z   24061.92283888  .00000733  00000-0  67541-4 0  9998,2 56790  70.0006   4.7231 0003020 269.0658  91.0155 14.99300198 43158,6947.194,96.045,571.157,566.961,0.0
56790.0,STARLINK-6345,PAYLOAD,2024-03-02 02:57:06,14.99300916,0.0002835,70.0006,4.2176,267.3688,92.7147,4.5071e-05,4.58e-06,0.0,0 STARLINK-6345,1 56790U 23078Z   24062.12298954  .00000458  00000-0  45071-4 0  9999,2 56790  70.0006   4.2176 0002835 267.3688  92.7147 14.99300916 43447,6947.192,96.045,571.027,567.088,0.0
56790.0,STARLINK-6345,PAYLOAD,2024-03-02 06:09:14,14.99307863,0.0002809,70.0005,3.8807,266.7549,93.3289,5.2052e-05,5.43e-06,0.0,0 STARLINK-6345,1 56790U 23078Z   24062.25641784  .00000543  00000-0  52052-4 0  9998,2 56790  70.0005   3.8807 0002809 266.7549  93.3289 14.99307863 43466,6947.171,96.044,570.987,567.084,0.0
56790.0,STARLINK-6345,PAYLOAD,2024-03-02 20:33:54,14.99295797,0.0002749,70.0009,2.3645,271.8551,88.2294,2.9303e-05,2.65e-06,0.0,0 STARLINK-6345,1 56790U 23078Z   24062.85687682  .00000265  00000-0  29303-4 0  9995,2 56790  70.0009   2.3645 0002749 271.8551  88.2294 14.99295797 43558,6947.208,96.045,570.983,567.163,0.0
56790.0,STARLINK-6345,PAYLOAD,2024-03-02 22:09:58,14.99295851,0.000275,70.0008,2.1958,270.5383,89.5461,1.8158e-05,1.28e-06,0.0,0 STARLINK-6345,1 56790U 23078Z   24062.92359391  .00000128  00000-0  18158-4 0  9990,2 56790  70.0008   2.1958 0002750 270.5383  89.5461 14.99295851 43307,6947.208,96.045,570.983,567.162,0.0
56790.0,STARLINK-6345,PAYLOAD,2024-03-03 06:10:20,14.99298815,0.0002667,70.0011,1.3561,262.3914,97.6943,-3.69e-05,-5.45e-06,0.0,0 STARLINK-6345,1 56790U 23078Z   24063.25717756 -.00000545  00000-0 -36900-4 0  9990,2 56790  70.0011   1.3561 0002667 262.3914  97.6943 14.99298815 43351,6947.199,96.045,570.916,567.211,0.0
56790.0,STARLINK-6345,PAYLOAD,2024-03-03 20:34:58,14.99299372,0.0002838,70.0012,359.8398,267.6225,92.4609,2.1694e-05,1.72e-06,0.0,0 STARLINK-6345,1 56790U 23078Z   24063.85762618  .00000172  00000-0  21694-4 0  9991,2 56790  70.0012 359.8398 0002838 267.6225  92.4609 14.99299372 43704,6947.197,96.045,571.033,567.09,0.0
56790.0,STARLINK-6345,PAYLOAD,2024-03-04 06:11:23,14.99310628,0.0002495,70.0014,358.8293,253.1807,106.9079,0.00010832,1.232e-05,0.0,0 STARLINK-6345,1 56790U 23078Z   24064.25791619  .00001232  00000-0  10832-3 0  9998,2 56790  70.0014 358.8293 0002495 253.1807 106.9079 14.99310628 43760,6947.162,96.044,570.76,567.294,0.0
56790.0,STARLINK-6345,PAYLOAD,2024-03-04 12:35:41,14.99302763,0.0002378,70.002,358.1504,293.1534,66.9375,5.2856e-05,5.53e-06,0.0,0 STARLINK-6345,1 56790U 23078Z   24064.52479165  .00000553  00000-0  52856-4 0  9995,2 56790  70.0020 358.1504 0002378 293.1534  66.9375 14.99302763 43547,6947.186,96.045,570.703,567.399,0.0
56790.0,STARLINK-6345,PAYLOAD,2024-03-04 20:36:03,14.99296567,0.0002542,70.0014,357.3127,268.9495,91.1374,-1.2429e-05,-2.46e-06,0.0,0 STARLINK-6345,1 56790U 23078Z   24064.85837906 -.00000246  00000-0 -12429-4 0  9995,2 56790  70.0014 357.3127 0002542 268.9495  91.1374 14.99296567 43858,6947.205,96.045,570.836,567.304,0.0
56790.0,STARLINK-6345,PAYLOAD,2024-03-04 22:12:08,14.99295039,0.0002573,70.0016,357.1446,267.637,92.4495,-2.6073e-05,-4.13e-06,0.0,0 STARLINK-6345,1 56790U 23078Z   24064.92509721 -.00000413  00000-0 -26073-4 0  9990,2 56790  70.0016 357.1446 0002573 267.6370  92.4495 14.99295039 43608,6947.21,96.045,570.863,567.288,0.0
56790.0,STARLINK-6345,PAYLOAD,2024-03-05 06:12:29,14.99297429,0.0002778,70.001,356.3006,271.2658,88.8184,2.5294e-05,2.16e-06,0.0,0 STARLINK-6345,1 56790U 23078Z   24065.25867883  .00000216  00000-0  25294-4 0  9996,2 56790  70.0010 356.3006 0002778 271.2658  88.8184 14.99297429 43656,6947.203,96.045,570.998,567.138,0.0
56790.0,STARLINK-6345,PAYLOAD,2024-03-05 20:37:09,14.9928612,0.0003376,70.0014,354.782,271.0992,88.9781,0.00012642,1.453e-05,0.0,0 STARLINK-6345,1 56790U 23078Z   24065.85913359  .00001453  00000-0  12642-3 0  9998,2 56790  70.0014 354.7820 0003376 271.0992  88.9781 14.99286120 44000,6947.238,96.046,571.448,566.757,0.0
56790.0,STARLINK-6345,PAYLOAD,2024-03-06 03:01:26,14.99303411,0.0002972,70.0005,354.1086,266.1682,93.9138,-7.5889e-05,-1.022e-05,0.0,0 STARLINK-6345,1 56790U 23078Z   24066.12599659 -.00001022  00000-0 -75889-4 0  9999,2 56790  70.0005 354.1086 0002972 266.1682  93.9138 14.99303411 44049,6947.184,96.045,571.114,566.985,0.0
